TDRS 3                  
1 19548U 88091B   24030.76376193 -.00000286  00000+0  00000+0 0  9999
2 19548  13.2693 346.8952 0041080 337.5163  31.2079  1.00271863116683
HST                     
1 20580U 90037B   24031.53111298  .00005472  00000+0  26955-3 0  9991
2 20580  28.4674 185.9615 0002494 348.8989  11.1548 15.15746641656378
TDRS 5                  
1 21639U 91054B   24031.09827729  .00000097  00000+0  00000+0 0  9998
2 21639  14.1804   0.1292 0026405 355.8020   1.9749  1.00274610119007
TDRS 6                  
1 22314U 93003B   24030.76428406 -.00000285  00000+0  00000+0 0  9997
2 22314  14.1581   3.4287 0006499 157.9172 197.1398  1.00264439113695
TDRS 7                  
1 23613U 95035B   24030.86209760 -.00000191  00000+0  00000+0 0  9994
2 23613  13.7390 354.2073 0023762  59.4912 111.0880  1.00276129104545
ISS (ZARYA)             
1 25544U 98067A   24031.57829558  .00012879  00000+0  23825-3 0  9998
2 25544  51.6415 277.2478 0002360 184.6916 242.2084 15.49393554437214
LANDSAT 7               
1 25682U 99020A   24031.53806956  .00000593  00000+0  13137-3 0  9999
2 25682  97.9047  64.7330 0001614  84.7209  71.6922 14.60441309319109
TERRA                   
1 25994U 99068A   24031.43988605  .00000677  00000+0  15183-3 0  9994
2 25994  98.0674  98.8865 0003075  82.0007 335.1331 14.59565005283070
TDRS 8                  
1 26388U 00034A   24031.43480453  .00000107  00000+0  00000+0 0  9991
2 26388  11.3194  38.3157 0005363 246.7006 193.8962  1.00270090 86479
TIMED                   
1 26998U 01055B   24031.50175431  .00002209  00000+0  22888-3 0  9994
2 26998  74.0717 176.5495 0002266 268.2926  91.7997 14.90692148201447
TDRS 9                  
1 27389U 02011A   24030.91135247 -.00000232  00000+0  00000+0 0  9990
2 27389  10.3041  55.1226 0001908 142.0713 233.7894  0.98984050 81689
AQUA                    
1 27424U 02022A   24031.53447193  .00001457  00000+0  32163-3 0  9995
2 27424  98.3151 340.5760 0001354 112.1668 306.6170 14.58815859156640
TDRS 10                 
1 27566U 02055A   24031.43558505  .00000100  00000+0  00000+0 0  9992
2 27566   9.3025  46.3461 0005791 304.9806 124.4647  1.00274326 77527
SORCE                   
1 27651U 03004A   24030.76634283  .00003938  00000+0  37657-3 0  9999
2 27651  39.9930 141.7892 0020240 333.2959  26.6788 14.93805250141538
AURA                    
1 28376U 04026A   24030.91621944  .00001396  00000+0  31287-3 0  9995
2 28376  98.2371 336.8850 0001656  94.4212 265.7176 14.58160225 39528
SWIFT                   
1 28485U 04047A   24031.47824606  .00011439  00000+0  56332-3 0  9998
2 28485  20.5570  84.1421 0008277 301.0386  58.9237 15.15292341 53389
THEMIS A                
1 30580U 07004A   24030.52020177 -.00000142  00000+0 -20188-1 0  9998
2 30580  10.8215 276.5881 8316066 294.4107 350.1212  0.87833191 58332
THEMIS D                
1 30797U 07004D   24031.38986258 -.00000085  00000+0  00000+0 0  9998
2 30797   7.0900 269.3674 8296158 305.2958 252.2788  0.87834152 57860
THEMIS E                
1 30798U 07004E   24031.31656586 -.00000084  00000+0  00000+0 0  9999
2 30798   8.3876 288.3811 8295467 287.8131 245.6406  0.87831900 58278
AIM                     
1 31304U 07015A   24030.83357203  .00047681  00000+0  10047-2 0  9993
2 31304  97.8939 352.6139 0006127 101.7890 258.4045 15.45093492921630
FGRST (GLAST)           
1 33053U 08029A   24031.22401665  .00004274  00000+0  20240-3 0  9996
2 33053  25.5836  75.8889 0010885 222.9800 136.9886 15.15677500863831
WISE                    
1 36119U 09071A   24031.46348538  .00026827  00000+0  44174-3 0  9995
2 36119  97.1702  67.4139 0000347  46.2503 313.8779 15.52310438786823
TDRS 11                 
1 39070U 13004A   24031.54323767  .00000094  00000+0  00000+0 0  9995
2 39070   2.6999   6.6303 0003219  26.7598 117.9827  1.00268852 40287
TDRS 12                 
1 39504U 14004A   24031.12333983 -.00000257  00000+0  00000+0 0  9995
2 39504   3.5551   0.0474 0002579 249.0858 243.9634  1.00264122 36745
GPM-CORE                
1 39574U 14009C   24031.46622708  .00018298  00000+0  39493-3 0  9995
2 39574  64.9902 333.9692 0012110 262.7029  97.2735 15.44569904563800
MMS 1                   
1 40482U 15011A   24031.50002315 -.00001910  00000+0  00000+0 0  9992
2 40482  39.0956  24.7433 9164134 134.8069  99.1317  0.28402523 14982
MMS 2                   
1 40483U 15011B   24031.50002315 -.00001910  00000+0  00000+0 0  9993
2 40483  39.0908  24.7650 9164183 134.7812  99.1621  0.28405507 14961
MMS 3                   
1 40484U 15011C   24031.50002315 -.00001909  00000+0  00000+0 0  9992
2 40484  39.0860  24.7621 9163587 134.7871  99.1515  0.28405536 14963
MMS 4                   
1 40485U 15011D   24031.50002315 -.00001910  00000+0  00000+0 0  9995
2 40485  39.0937  24.7425 9163641 134.8009  99.1541  0.28402531 14967
TDRS 13                 
1 42915U 17047A   24031.12925736 -.00000083  00000+0  00000+0 0  9995
2 42915   3.7586 341.8277 0012405 110.0338  72.9798  1.00272573 23679
JPSS-1                  
1 43013U 17073A   24031.42162237  .00000151  00000+0  92406-4 0  9997
2 43013  98.7365 331.4600 0001042 116.6422 243.4861 14.19539815321355
